satname,norad_id,inclination_deg,eccentricity,mean_motion_rev_per_day,perigee_km,apogee_km,l1,l2
STARLINK-1296,45412,53.1603,0.0002638,15.33400157,463.87120092047553,467.4819969752798,1 45412U 20019BE  26101.84577530  .00036388  00000+0  11175-2 0  9991,2 45412  53.1603 334.9310 0002638 190.2793 169.8155 15.33400157335059
STARLINK-1309,45414,53.0657,0.0005971,15.61715081,378.66579703155094,386.7395917946187,1 45414U 20019BG  26101.85479455  .00075914  00000+0  86062-3 0  9997,2 45414  53.0657 322.5841 0005971 169.4262 190.6878 15.61715081335200
STARLINK-1316,45415,53.1575,0.0001888,15.33610141,463.7598810799909,466.3438691992442,1 45415U 20019BH  26101.76025299  .00039907  00000+0  12159-2 0  9998,2 45415  53.1575 335.3769 0001888 227.7027 132.3815 15.33610141335060
STARLINK-1286,45417,53.0496,0.0003607,15.5368444,403.5324672372926,408.42652887899203,1 45417U 20019BK  26101.89454753  .00029770  00000+0  46313-3 0  9992,2 45417  53.0496 330.8535 0003607 155.0692 205.0492 15.53684440335385
STARLINK-1308,45419,53.0521,0.000614,15.57141837,391.7744318029572,400.09299063633443,1 45419U 20019BM  26101.68099206  .00082566  00000+0  11118-2 0  9995,2 45419  53.0521 352.9230 0006140 158.8567 201.2699 15.57141837334805
STARLINK-1329,45531,53.0442,0.0001118,15.66856634,367.15017304430603,368.65858789697904,1 45531U 20025A   26101.83781635  .00046103  00000+0  43053-3 0  9999,2 45531  53.0442 279.2628 0001118 306.1636  53.9276 15.66856634330637
STARLINK-1338,45532,53.0474,0.0001742,15.60976766,383.6562569087446,386.01247613283977,1 45532U 20025B   26101.87364995  .00083377  00000+0  97162-3 0  9994,2 45532  53.0474 283.6448 0001742 163.1119 196.9952 15.60976766330577
STARLINK-1350,45535,53.0714,0.000119,15.37009533,454.14499550316486,455.77127214501434,1 45535U 20025E   26101.63776951  .00010745  00000+0  30260-3 0  9995,2 45535  53.0714 238.3024 0001190 115.6933 244.4192 15.37009533331228
STARLINK-1362,45538,53.1606,0.0001121,15.31840052,469.5548269954734,471.09025162418675,1 45538U 20025H   26101.88868397 -.00165528  00000+0 -54172-2 0  9990,2 45538  53.1606 306.6603 0001121  93.1002 267.0128 15.31840052330261
STARLINK-1368,45540,53.1607,0.0001063,15.32521439,467.564646676321,469.02019757146354,1 45540U 20025K   26101.83725905  .00009999  00000+0  32518-3 0  9993,2 45540  53.1607 307.2750 0001063  87.1189 272.9934 15.32521439330243
STARLINK-1371,45542,53.0486,0.0003128,15.52950273,405.99474502241264,410.24022582849466,1 45542U 20025M   26101.76343619  .00079972  00000+0  12571-2 0  9999,2 45542  53.0486 290.7626 0003128 214.7503 145.3303 15.52950273330460
STARLINK-1372,45543,53.1601,8.8e-05,15.32899567,466.56409380774676,467.7688672203176,1 45543U 20025N   26101.29174507  .00042673  00000+0  13283-2 0  9995,2 45543  53.1601 309.5069 0000880  86.2064 273.9039 15.32899567329263
STARLINK-1373,45544,53.0481,0.0002204,15.57117983,394.5098734145804,397.49591427978703,1 45544U 20025P   26101.56595639  .00088893  00000+0  11974-2 0  9998,2 45544  53.0481 290.3172 0002204 178.2102 181.8917 15.57117983330455
STARLINK-1327,45555,53.0435,0.0004477,15.59626745,385.70698316047583,391.76604170350856,1 45555U 20025AA  26101.77381493  .00069524  00000+0  85530-3 0  9994,2 45555  53.0435 266.1789 0004477 205.2769 154.8024 15.59626745330806
STARLINK-1356,45564,53.0475,0.0002717,15.50333598,413.90539718299715,417.59719608338855,1 45564U 20025AK  26101.86315838  .00065296  00000+0  11305-2 0  9994,2 45564  53.0475 275.2845 0002717 189.1088 170.9871 15.50333598330680
STARLINK-1357,45565,53.0472,0.000508,15.63150885,375.1296258316388,381.9944320450404,1 45565U 20025AL  26101.66233461  .00125690  00000+0  13359-2 0  9990,2 45565  53.0472 237.6117 0005080 292.8165  67.2312 15.63150885331203
STARLINK-1361,45567,53.0477,0.0003764,15.53478054,404.0265824790231,409.13411770017046,1 45567U 20025AN  26101.82068523  .00074538  00000+0  11507-2 0  9992,2 45567  53.0477 274.8046 0003764 149.6863 210.4365 15.53478054330697
STARLINK-1363,45568,53.0384,0.0001306,15.865648,311.0485405123036,312.79598399160477,1 45568U 20025AP  26101.91668980  .00151971  00000+0  58039-3 0  9995,2 45568  53.0384 230.6564 0001306 267.1894 300.2444 15.86564800  6226
STARLINK-1366,45569,53.0367,0.0001312,15.84764832,316.1085941875572,317.8653947237017,1 45569U 20025AQ  26101.91668980  .00166682  00000+0  69294-3 0  9996,2 45569  53.0367 231.7510 0001312 229.5765  98.0916 15.84764832  6217
STARLINK-1376,45570,53.1572,0.0001568,15.33425927,464.52682494582314,466.67302084484254,1 45570U 20025AR  26101.86971648  .00042780  00000+0  13097-2 0  9991,2 45570  53.1572 283.3692 0001568 273.9124  86.1699 15.33425927330586
STARLINK-1320,45572,53.0466,0.0003154,15.74734025,343.26755086282355,347.5087505278825,1 45572U 20025AT  26101.49534219  .00082777  00000+0  55067-3 0  9995,2 45572  53.0466 183.1670 0003154 107.1497 252.9867 15.74734025331966
STARLINK-1321,45573,53.0453,0.0002372,15.54580933,401.7625053466336,404.97965277934054,1 45573U 20025AU  26101.42188756  .00083468  00000+0  12358-2 0  9993,2 45573  53.0453 261.1123 0002372 251.7111 108.3641 15.54580933330545
STARLINK-1331,45578,53.0497,0.0004712,15.54310174,400.96279231679,407.35442769966176,1 45578U 20025AZ  26101.81820051  .00073525  00000+0  11014-2 0  9993,2 45578  53.0497 265.9230 0004712 239.3686 120.6860 15.54310174330827
STARLINK-1333,45580,53.1586,0.0001218,15.30482517,473.5370187906028,475.2062898988015,1 45580U 20025BB  26101.21978220  .00033851  00000+0  11399-2 0  9996,2 45580  53.1586 286.7067 0001218  78.6127 281.5011 15.30482517330483
STARLINK-1335,45581,53.1564,9.27e-05,15.32027317,469.1296535377551,470.3992544673256,1 45581U 20025BC  26101.91668980  .00080915  00000+0  25647-2 0  9997,2 45581  53.1564 280.8336 0000927  57.1590  62.7932 15.32027317  6000
STARLINK-1337,45582,53.0497,0.00048,15.65062415,369.8186865622638,376.2998349726013,1 45582U 20025BD  26101.84322262  .00091601  00000+0  90817-3 0  9996,2 45582  53.0497 259.9639 0004800 253.0075 107.0414 15.65062415330896
STARLINK-1347,45586,53.0393,0.0002387,15.61471708,381.79119819368407,385.0191584296099,1 45586U 20025BH  26101.66294162  .00106055  00000+0  12075-2 0  9996,2 45586  53.0393 229.4365 0002387 295.2250  64.8515 15.61471708331308
STARLINK-1364,45589,53.0464,0.0004916,15.55809586,396.46824937983,403.13231731681753,1 45589U 20025BL  26101.77606375  .00078322  00000+0  11093-2 0  9998,2 45589  53.0464 263.8321 0004916 205.5624 154.5144 15.55809586330837
STARLINK-1365,45590,53.0512,0.0003534,15.50880163,411.7545943277455,416.55538630650244,1 45590U 20025BM  26101.85427735  .00062472  00000+0  10615-2 0  9998,2 45590  53.0512 294.8917 0003534 192.0058 168.0867 15.50880163330426
STARLINK-1443,45660,53.1341,0.0001603,15.28249013,479.94703415078857,482.1460884005328,1 45660U 20035D   26101.44891420  .00034345  00000+0  12382-2 0  9999,2 45660  53.1341 273.4920 0001603 208.7144 151.3768 15.28249013323760
STARLINK-1446,45663,53.0232,0.0003068,15.44356753,431.17904284596716,435.3585214338882,1 45663U 20035G   26101.57267628  .00018719  00000+0  40742-3 0  9992,2 45663  53.0232 203.0064 0003068  22.4572 337.6566 15.44356753324755
STARLINK-1448,45665,53.0463,0.0005252,15.59987633,384.1394246789132,391.24625234128507,1 45665U 20035J   26101.86009258  .00090656  00000+0  10951-2 0  9997,2 45665  53.0463 252.1477 0005252 239.8205 120.2288 15.59987633324086
STARLINK-1451,45668,53.053,8.23e-05,15.11876207,529.9098743938039,531.0470324974413,1 45668U 20035M   26101.75413876  .00024032  00000+0  14009-2 0  9996,2 45668  53.0530 276.5782 0000823 107.3609 252.7472 15.11876207323749
STARLINK-1452,45669,53.0284,0.0001938,15.50142459,414.99299779376724,417.6265253585534,1 45669U 20035N   26101.80922110  .00066543  00000+0  11596-2 0  9990,2 45669  53.0284 223.3085 0001938 190.3948 169.7020 15.50142459324495
STARLINK-1453,45670,53.0432,9.08e-05,15.60442958,385.76241265037424,386.9908483256695,1 45670U 20035P   26101.58771106  .00116544  00000+0  13781-2 0  9999,2 45670  53.0432 213.9739 0000908 358.9838   1.1173 15.60442958324495
STARLINK-1454,45671,53.0452,0.0004383,15.583177,389.5580180987008,395.4931809334357,1 45671U 20035Q   26101.15512133  .00101480  00000+0  13036-2 0  9992,2 45671  53.0452 256.0284 0004383 215.8755 144.1962 15.58317700323969
STARLINK-1456,45673,53.042,0.0004772,15.56272228,395.223148546821,401.69072980236797,1 45673U 20035S   26101.70127421  .00099623  00000+0  13816-2 0  9998,2 45673  53.0420 247.2464 0004772 299.0647  60.9885 15.56272228324158
STARLINK-1457,45674,53.0407,0.0003122,15.90655116,298.36344572325197,302.53355450952495,1 45674U 20035T   26101.91668980  .00205581  26602-4  65857-3 0  9998,2 45674  53.0407 214.7103 0003122 303.5557  42.1313 15.90655116  6167
STARLINK-1458,45675,53.0477,0.0005459,15.48227638,418.1986303623835,425.62292252470525,1 45675U 20035U   26101.72714419  .00097641  00000+0  18080-2 0  9997,2 45675  53.0477 258.0937 0005459 241.0907 118.9553 15.48227638323966
STARLINK-1460,45676,53.1589,0.0001251,15.3050775,473.43909795698437,475.1535767779942,1 45676U 20035V   26101.84390448  .00038674  00000+0  12987-2 0  9994,2 45676  53.1589 270.9448 0001251  65.7156 294.3975 15.30507750323790
STARLINK-1392,45677,53.1547,0.0001674,15.33314603,464.7854746907833,467.0768687146701,1 45677U 20035W   26101.91668980  .00082150  00000+0  25003-2 0  9993,2 45677  53.1547 270.5042 0001674  88.7917 305.9040 15.33314603  6066
STARLINK-1394,45679,53.0447,0.0005814,15.56193162,394.74642577131544,402.6265161033216,1 45679U 20035Y   26101.37705296  .00073235  00000+0  10236-2 0  9993,2 45679  53.0447 239.0400 0005814 299.3225  60.7205 15.56193162324237
STARLINK-1402,45685,53.0445,0.0006291,15.50508127,410.9677481839999,419.5151769656122,1 45685U 20035AE  26101.72079242  .00072819  00000+0  12502-2 0  9999,2 45685  53.0445 225.4714 0006291 336.8694  23.2030 15.50508127324466
